{"type": "FeatureCollection", "features": [ {"type": "Feature", "properties": {"norad_id": 34878, "name": "COSMOS 2251 DEB", "group": "cosmos-2251-debris", "lat": -21.928293500653194, "lon": -144.4046802047649, "alt_km": 1415.6324203490567, "timestamp": "2025-12-24T07:45:06.594234+00:00", "meta": {"OBJECT_NAME": "COSMOS 2251 DEB", "OBJECT_ID": "1993-036ACR", "EPOCH": "2025-12-23T20:54:13.289760", "MEAN_MOTION": 13.44205311, "ECCENTRICITY": 0.0435702, "INCLINATION": 73.965, "RA_OF_ASC_NODE": 29.6641, "ARG_OF_PERICENTER": 10.9994, "MEAN_ANOMALY": 166.3695, "EPHEMERIS_TYPE": 0, "CLASSIFICATION_TYPE": "U", "NORAD_CAT_ID": 34878, "ELEMENT_SET_NO": 999, "REV_AT_EPOCH": 81422, "BSTAR": 0.00069148369, "MEAN_MOTION_DOT": 6.89e-06, "MEAN_MOTION_DDOT": 0}, "tle": {"line1": "1 34878U 93036ACR 25357.87098715  .00000689  00000+0  69148-3 0  9991", "line2": "2 34878  73.9650  29.6641 0435702  10.9994 166.3695 13.44205311814220"}}, "geometry": {"type": "Point", "coordinates": [-144.4046802047649, -21.928293500653194]}}, {"type": "Feature", "properties": {"norad_id": 34882, "name": "COSMOS 2251 DEB", "group": "cosmos-2251-debris", "lat": -46.66935647046403, "lon": 41.09902065359418, "alt_km": 702.6282965415057, "timestamp": "2025-12-24T07:45:06.594244+00:00", "meta": {"OBJECT_NAME": "COSMOS 2251 DEB", "OBJECT_ID": "1993-036ACV", "EPOCH": "2025-12-22T13:37:59.630592", "MEAN_MOTION": 14.61613219, "ECCENTRICITY": 0.00833251, "INCLINATION": 74.0449, "RA_OF_ASC_NODE": 206.7999, "ARG_OF_PERICENTER": 331.387, "MEAN_ANOMALY": 28.2735, "EPHEMERIS_TYPE": 0, "CLASSIFICATION_TYPE": "U", "NORAD_CAT_ID": 34882, "ELEMENT_SET_NO": 999, "REV_AT_EPOCH": 88668, "BSTAR": 0.0001119864, "MEAN_MOTION_DOT": 5.51e-06, "MEAN_MOTION_DDOT": 0}, "tle": {"line1": "1 34882U 93036ACV 25356.56805128  .00000551  00000+0  11199-3 0  9996", "line2": "2 34882  74.0449 206.7999 0083325 331.3870  28.2735 14.61613219886680"}}, "geometry": {"type": "Point", "coordinates": [41.09902065359418, -46.66935647046403]}}, {"type": "Feature", "properties": {"norad_id": 34883, "name": "COSMOS 2251 DEB", "group": "cosmos-2251-debris", "lat": -41.198567343981956, "lon": -124.52535499001613, "alt_km": 659.0551210387321, "timestamp": "2025-12-24T07:45:06.594254+00:00", "meta": {"OBJECT_NAME": "COSMOS 2251 DEB", "OBJECT_ID": "1993-036ACW", "EPOCH": "2025-12-23T02:36:33.483168", "MEAN_MOTION": 14.51787467, "ECCENTRICITY": 0.00942228, "INCLINATION": 74.1995, "RA_OF_ASC_NODE": 43.3859, "ARG_OF_PERICENTER": 225.8341, "MEAN_ANOMALY": 133.505, "EPHEMERIS_TYPE": 0, "CLASSIFICATION_TYPE": "U", "NORAD_CAT_ID": 34883, "ELEMENT_SET_NO": 999, "REV_AT_EPOCH": 86590, "BSTAR": 0.003571855, "MEAN_MOTION_DOT": 0.00015225, "MEAN_MOTION_DDOT": 0}, "tle": {"line1": "1 34883U 93036ACW 25357.10872087  .00015225  00000+0  35719-2 0  9993", "line2": "2 34883  74.1995  43.3859 0094222 225.8341 133.5050 14.51787467865904"}}, "geometry": {"type": "Point", "coordinates": [-124.52535499001613, -41.198567343981956]}}, {"type": "Feature", "properties": {"norad_id": 34884, "name": "COSMOS 2251 DEB", "group": "cosmos-2251-debris", "lat": -31.2212604270766, "lon": 23.520872496656807, "alt_km": 601.0570176235042, "timestamp": "2025-12-24T07:45:06.594264+00:00", "meta": {"OBJECT_NAME": "COSMOS 2251 DEB", "OBJECT_ID": "1993-036ACX", "EPOCH": "2025-12-23T21:24:42.685344", "MEAN_MOTION": 14.90539862, "ECCENTRICITY": 0.00029786, "INCLINATION": 74.0166, "RA_OF_ASC_NODE": 34.3892, "ARG_OF_PERICENTER": 34.6365, "MEAN_ANOMALY": 142.0083, "EPHEMERIS_TYPE": 0, "CLASSIFICATION_TYPE": "U", "NORAD_CAT_ID": 34884, "ELEMENT_SET_NO": 999, "REV_AT_EPOCH": 87971, "BSTAR": 0.0023303409, "MEAN_MOTION_DOT": 0.00022822, "MEAN_MOTION_DDOT": 0}, "tle": {"line1": "1 34884U 93036ACX 25357.89216071  .00022822  00000+0  23303-2 0  9992", "line2": "2 34884  74.0166  34.3892 0002978  34.6365 142.0083 14.90539862879712"}}, "geometry": {"type": "Point", "coordinates": [23.520872496656807, -31.2212604270766]}}, {"type": "Feature", "properties": {"norad_id": 34885, "name": "COSMOS 2251 DEB", "group": "cosmos-2251-debris", "lat": 35.88664829420999, "lon": 173.16938754386896, "alt_km": 727.1008655974447, "timestamp": "2025-12-24T07:45:06.594274+00:00", "meta": {"OBJECT_NAME": "COSMOS 2251 DEB", "OBJECT_ID": "1993-036ACY", "EPOCH": "2025-12-23T18:25:17.940000", "MEAN_MOTION": 14.51558364, "ECCENTRICITY": 0.00150763, "INCLINATION": 74.0301, "RA_OF_ASC_NODE": 162.2571, "ARG_OF_PERICENTER": 247.7319, "MEAN_ANOMALY": 128.5918, "EPHEMERIS_TYPE": 0, "CLASSIFICATION_TYPE": "U", "NORAD_CAT_ID": 34885, "ELEMENT_SET_NO": 999, "REV_AT_EPOCH": 87639, "BSTAR": 0.00073001763, "MEAN_MOTION_DOT": 2.899e-05, "MEAN_MOTION_DDOT": 0}, "tle": {"line1": "1 34885U 93036ACY 25357.76756875  .00002899  00000+0  73002-3 0  9994", "line2": "2 34885  74.0301 162.2571 0015076 247.7319 128.5918 14.51558364876390"}}, "geometry": {"type": "Point", "coordinates": [173.16938754386896, 35.88664829420999]}}, {"type": "Feature", "properties": {"norad_id": 34886, "name": "COSMOS 2251 DEB", "group": "cosmos-2251-debris", "lat": -0.4466937902409065, "lon": -24.013047508105547, "alt_km": 468.546642669643, "timestamp": "2025-12-24T07:45:06.594284+00:00", "meta": {"OBJECT_NAME": "COSMOS 2251 DEB", "OBJECT_ID": "1993-036ACZ", "EPOCH": "2025-12-19T05:20:10.106016", "MEAN_MOTION": 15.39455892, "ECCENTRICITY": 0.0031395, "INCLINATION": 73.9504, "RA_OF_ASC_NODE": 166.9286, "ARG_OF_PERICENTER": 349.772, "MEAN_ANOMALY": 10.2844, "EPHEMERIS_TYPE": 0, "CLASSIFICATION_TYPE": "U", "NORAD_CAT_ID": 34886, "ELEMENT_SET_NO": 999, "REV_AT_EPOCH": 63098, "BSTAR": 0.0012728, "MEAN_MOTION_DOT": 0.00051055, "MEAN_MOTION_DDOT": 0}, "tle": {"line1": "1 34886U 93036ACZ 25353.22233919  .00051055  00000+0  12728-2 0  9996", "line2": "2 34886  73.9504 166.9286 0031395 349.7720  10.2844 15.39455892630986"}}, "geometry": {"type": "Point", "coordinates": [-24.013047508105547, -0.4466937902409065]}}, {"type": "Feature", "properties": {"norad_id": 34907, "name": "COSMOS 2251 DEB", "group": "cosmos-2251-debris", "lat": 64.87601742607539, "lon": 165.14620144376715, "alt_km": 414.84209825374364, "timestamp": "2025-12-24T07:45:06.594294+00:00", "meta": {"OBJECT_NAME": "COSMOS 2251 DEB", "OBJECT_ID": "1993-036ADC", "EPOCH": "2025-12-21T12:42:42.511680", "MEAN_MOTION": 15.49920012, "ECCENTRICITY": 0.0018559, "INCLINATION": 73.9666, "RA_OF_ASC_NODE": 29.1312, "ARG_OF_PERICENTER": 328.4772, "MEAN_ANOMALY": 31.5327, "EPHEMERIS_TYPE": 0, "CLASSIFICATION_TYPE": "U", "NORAD_CAT_ID": 34907, "ELEMENT_SET_NO": 999, "REV_AT_EPOCH": 88109, "BSTAR": 0.006372, "MEAN_MOTION_DOT": 0.00375951, "MEAN_MOTION_DDOT": 0}, "tle": {"line1": "1 34907U 93036ADC 25355.52965870  .00375951  00000+0  63720-2 0  9995", "line2": "2 34907  73.9666  29.1312 0018559 328.4772  31.5327 15.49920012881091"}}, "geometry": {"type": "Point", "coordinates": [165.14620144376715, 64.87601742607539]}}, {"type": "Feature", "properties": {"norad_id": 34908, "name": "COSMOS 2251 DEB", "group": "cosmos-2251-debris", "lat": -47.970953192329304, "lon": -159.13864086227161, "alt_km": 797.0204328394984, "timestamp": "2025-12-24T07:45:06.594304+00:00", "meta": {"OBJECT_NAME": "COSMOS 2251 DEB", "OBJECT_ID": "1993-036ADD", "EPOCH": "2025-12-22T07:59:02.454720", "MEAN_MOTION": 14.3742634, "ECCENTRICITY": 0.00405228, "INCLINATION": 74.0578, "RA_OF_ASC_NODE": 6.0278, "ARG_OF_PERICENTER": 19.2122, "MEAN_ANOMALY": 356.2877, "EPHEMERIS_TYPE": 0, "CLASSIFICATION_TYPE": "U", "NORAD_CAT_ID": 34908, "ELEMENT_SET_NO": 999, "REV_AT_EPOCH": 87417, "BSTAR": 0.00050310259, "MEAN_MOTION_DOT": 1.493e-05, "MEAN_MOTION_DDOT": 0}, "tle": {"line1": "1 34908U 93036ADD 25356.33266730  .00001493  00000+0  50310-3 0  9994", "line2": "2 34908  74.0578   6.0278 0040522  19.2122 356.2877 14.37426340874179"}}, "geometry": {"type": "Point", "coordinates": [-159.13864086227161, -47.970953192329304]}}, {"type": "Feature", "properties": {"norad_id": 34909, "name": "COSMOS 2251 DEB", "group": "cosmos-2251-debris", "lat": -65.52757329741075, "lon": -87.16116679947022, "alt_km": 616.8625138826901, "timestamp": "2025-12-24T07:45:06.594314+00:00", "meta": {"OBJECT_NAME": "COSMOS 2251 DEB", "OBJECT_ID": "1993-036ADE", "EPOCH": "2025-12-22T10:45:29.037600", "MEAN_MOTION": 14.77909001, "ECCENTRICITY": 0.00838548, "INCLINATION": 74.0141, "RA_OF_ASC_NODE": 57.4844, "ARG_OF_PERICENTER": 191.04, "MEAN_ANOMALY": 168.894, "EPHEMERIS_TYPE": 0, "CLASSIFICATION_TYPE": "U", "NORAD_CAT_ID": 34909, "ELEMENT_SET_NO": 999, "REV_AT_EPOCH": 66995, "BSTAR": 0.00051867971, "MEAN_MOTION_DOT": 3.926e-05, "MEAN_MOTION_DDOT": 0}, "tle": {"line1": "1 34909U 93036ADE 25356.44825275  .00003926  00000+0  51868-3 0  9994", "line2": "2 34909  74.0141  57.4844 0083854 191.0400 168.8940 14.77909001669958"}}, "geometry": {"type": "Point", "coordinates": [-87.16116679947022, -65.52757329741075]}}, {"type": "Feature", "properties": {"norad_id": 34910, "name": "COSMOS 2251 DEB", "group": "cosmos-2251-debris", "lat": 54.48420324946797, "lon": -120.76390791818449, "alt_km": 1024.820644586699, "timestamp": "2025-12-24T07:45:06.594324+00:00", "meta": {"OBJECT_NAME": "COSMOS 2251 DEB", "OBJECT_ID": "1993-036ADF", "EPOCH": "2025-12-23T22:45:30.280032", "MEAN_MOTION": 13.37707493, "ECCENTRICITY": 0.04677606, "INCLINATION": 73.8761, "RA_OF_ASC_NODE": 83.7364, "ARG_OF_PERICENTER": 200.8485, "MEAN_ANOMALY": 282.4529, "EPHEMERIS_TYPE": 0, "CLASSIFICATION_TYPE": "U", "NORAD_CAT_ID": 34910, "ELEMENT_SET_NO": 999, "REV_AT_EPOCH": 81674, "BSTAR": 0.0010465272, "MEAN_MOTION_DOT": 1.013e-05, "MEAN_MOTION_DDOT": 0}, "tle": {"line1": "1 34910U 93036ADF 25357.94826713  .00001013  00000+0  10465-2 0  9992", "line2": "2 34910  73.8761  83.7364 0467760 200.8485 282.4529 13.37707493816741"}}, "geometry": {"type": "Point", "coordinates": [-120.76390791818449, 54.48420324946797]}}]}